{
  "type": "FeatureCollection",
  "features": [
    {
      "type": "Feature",
      "properties": {
        "flood_zone_id": "DEMO-FZ-01",
        "risk_level": "high",
        "source": "synthetic",
        "data_year": 2026
      },
      "geometry": {
        "type": "Polygon",
        "coordinates": [
          [
            [
              76.28,
              9.95
            ],
            [
              76.35,
              9.95
            ],
            [
              76.35,
              10.02
            ],
            [
              76.28,
              10.02
            ],
            [
              76.28,
              9.95
            ]
          ]
        ]
      }
    }
  ]
}